STARLINK-34029          
1 63805U 25092B   26068.31763039  .00028942  00000+0  10565-2 0  9997
2 63805  42.9979 175.0003 0001862 278.4208  81.6432 15.27599019 48552
HERMES-3                
1 63835U 25052BR  26068.93751242  .00020316  00000+0  69958-3 0  9995
2 63835  97.3987 324.6131 0007993 112.9583 247.2502 15.30039785 54863
